{
  "norad_id": 42809,
  "name": "IRIDIUM 126",
  "history": [
    {
      "epoch": "2026-04-13T04:39:34.709472Z",
      "apogee_km": 779.068292509759,
      "perigee_km": 776.2735201738578,
      "latitude_deg": -1.5284256551852463e-05,
      "longitude_deg": 109.51604241002559,
      "height_km": 780.6403855054832,
      "semi_major_axis_km": 7155.807906341808,
      "eccentricity": 0.00019528,
      "inclination_deg": 86.402,
      "raan_deg": 20.7991,
      "arg_perigee_deg": 86.7868,
      "mean_anomaly_deg": 273.3551,
      "mean_motion_rev_day": 14.34216622
    },
    {
      "epoch": "2026-04-14T12:28:26.812128Z",
      "apogee_km": 779.0690642864192,
      "perigee_km": 776.2745778256203,
      "latitude_deg": -1.9555638605471812e-05,
      "longitude_deg": -9.561424975713186,
      "height_km": 780.648862321591,
      "semi_major_axis_km": 7155.80882105602,
      "eccentricity": 0.00019526,
      "inclination_deg": 86.4012,
      "raan_deg": 20.2453,
      "arg_perigee_deg": 87.0974,
      "mean_anomaly_deg": 273.0445,
      "mean_motion_rev_day": 14.34216347
    },
    {
      "epoch": "2026-04-15T18:36:50.875776Z",
      "apogee_km": 779.0951586037736,
      "perigee_km": 776.2457160822241,
      "latitude_deg": 2.0316846434933483e-05,
      "longitude_deg": -103.42369194677225,
      "height_km": 780.67740640835,
      "semi_major_axis_km": 7155.807437342999,
      "eccentricity": 0.0001991,
      "inclination_deg": 86.4015,
      "raan_deg": 19.7211,
      "arg_perigee_deg": 88.3606,
      "mean_anomaly_deg": 271.7818,
      "mean_motion_rev_day": 14.34216763
    },
    {
      "epoch": "2026-04-16T16:22:54.918048Z",
      "apogee_km": 779.1698288117605,
      "perigee_km": 776.1701145292354,
      "latitude_deg": 1.7311887963171797e-05,
      "longitude_deg": -71.21320454471395,
      "height_km": 780.6752126764014,
      "semi_major_axis_km": 7155.806971670498,
      "eccentricity": 0.0002096,
      "inclination_deg": 86.4018,
      "raan_deg": 19.3424,
      "arg_perigee_deg": 88.3837,
      "mean_anomaly_deg": 271.7599,
      "mean_motion_rev_day": 14.34216903
    },
    {
      "epoch": "2026-04-17T17:29:54.932928Z",
      "apogee_km": 779.1783181288356,
      "perigee_km": 776.1589974895805,
      "latitude_deg": -4.018750038739485e-05,
      "longitude_deg": -89.43167371405586,
      "height_km": 780.674268410325,
      "semi_major_axis_km": 7155.805657809208,
      "eccentricity": 0.00021097,
      "inclination_deg": 86.4018,
      "raan_deg": 18.9055,
      "arg_perigee_deg": 88.4088,
      "mean_anomaly_deg": 271.7349,
      "mean_motion_rev_day": 14.34217298
    },
    {
      "epoch": "2026-04-18T11:55:02.924832Z",
      "apogee_km": 779.1852865127275,
      "perigee_km": 776.1489357122991,
      "latitude_deg": 2.4616520811067076e-05,
      "longitude_deg": -6.79190574667657,
      "height_km": 780.6707219054912,
      "semi_major_axis_km": 7155.804111112513,
      "eccentricity": 0.00021216,
      "inclination_deg": 86.4016,
      "raan_deg": 18.585,
      "arg_perigee_deg": 88.3435,
      "mean_anomaly_deg": 271.8004,
      "mean_motion_rev_day": 14.34217763
    },
    {
      "epoch": "2026-04-19T19:43:54.915168Z",
      "apogee_km": 779.1960439113655,
      "perigee_km": 776.1362224916074,
      "latitude_deg": 3.208304944630811e-05,
      "longitude_deg": -125.86850541382383,
      "height_km": 780.6801775428727,
      "semi_major_axis_km": 7155.803133201486,
      "eccentricity": 0.0002138,
      "inclination_deg": 86.4017,
      "raan_deg": 18.0316,
      "arg_perigee_deg": 88.7481,
      "mean_anomaly_deg": 271.396,
      "mean_motion_rev_day": 14.34218057
    },
    {
      "epoch": "2026-04-20T10:48:06.899040Z",
      "apogee_km": 779.201217973955,
      "perigee_km": 776.1298044200985,
      "latitude_deg": -6.458090118810043e-05,
      "longitude_deg": 7.200451796514209,
      "height_km": 780.6901951261482,
      "semi_major_axis_km": 7155.802511197026,
      "eccentricity": 0.00021461,
      "inclination_deg": 86.4016,
      "raan_deg": 17.7694,
      "arg_perigee_deg": 89.1498,
      "mean_anomaly_deg": 270.9943,
      "mean_motion_rev_day": 14.34218244
    },
    {
      "epoch": "2026-04-21T18:36:58.936032Z",
      "apogee_km": 779.2003437590502,
      "perigee_km": 776.1333662268016,
      "latitude_deg": -2.333072575591307e-05,
      "longitude_deg": -111.87654289872872,
      "height_km": 780.67578135732,
      "semi_major_axis_km": 7155.803854992926,
      "eccentricity": 0.0002143,
      "inclination_deg": 86.4013,
      "raan_deg": 17.2158,
      "arg_perigee_deg": 88.56,
      "mean_anomaly_deg": 271.5841,
      "mean_motion_rev_day": 14.3421784
    },
    {
      "epoch": "2026-04-22T19:43:58.942272Z",
      "apogee_km": 779.1987326552953,
      "perigee_km": 776.1360483761555,
      "latitude_deg": 1.3349337788478782e-05,
      "longitude_deg": -130.09467410772666,
      "height_km": 780.6715417764196,
      "semi_major_axis_km": 7155.804390515726,
      "eccentricity": 0.000214,
      "inclination_deg": 86.4017,
      "raan_deg": 16.7792,
      "arg_perigee_deg": 88.3791,
      "mean_anomaly_deg": 271.765,
      "mean_motion_rev_day": 14.34217679
    },
    {
      "epoch": "2026-04-23T02:25:50.944512Z",
      "apogee_km": 779.1991170610427,
      "perigee_km": 776.1357171900709,
      "latitude_deg": -9.33761966898483e-05,
      "longitude_deg": 129.0470746200188,
      "height_km": 780.6727005834043,
      "semi_major_axis_km": 7155.804417125556,
      "eccentricity": 0.00021405,
      "inclination_deg": 86.4018,
      "raan_deg": 16.6627,
      "arg_perigee_deg": 88.4212,
      "mean_anomaly_deg": 271.7228,
      "mean_motion_rev_day": 14.34217671
    },
    {
      "epoch": "2026-04-24T18:37:02.950176Z",
      "apogee_km": 779.1391628583306,
      "perigee_km": 776.1966958713765,
      "latitude_deg": -3.0125322428053058e-05,
      "longitude_deg": -116.10265514018272,
      "height_km": 780.6874247870963,
      "semi_major_axis_km": 7155.804929364854,
      "eccentricity": 0.0002056,
      "inclination_deg": 86.4013,
      "raan_deg": 15.9634,
      "arg_perigee_deg": 88.9046,
      "mean_anomaly_deg": 271.2385,
      "mean_motion_rev_day": 14.34217517
    }
  ]
}